48068,ONEWEB-0168,2021,109.63,148.0,+,87.9,Active,1,LEO,Russia,UK,Commercial,Communications,Soyuz,1 48068U 21025AC  23245.79945707 -.00000251  00000+0 -72085-3 0  9994,2 48068  87.9019 162.8505 0001861  73.3537 286.7797 13.13472237119878,13.13472237,0.0001861,LEO
48069,ONEWEB-0173,2021,109.63,148.0,+,87.9,Active,1,LEO,Russia,UK,Commercial,Communications,Soyuz,1 48069U 21025AD  23246.02164527 -.00000144  00000+0 -42968-3 0  9993,2 48069  87.9018 162.8203 0002420  68.0165 292.1221 13.13470984120145,13.13470984,0.000242,LEO
48070,ONEWEB-0171,2021,109.63,148.0,+,87.91,Active,1,LEO,Russia,UK,Commercial,Communications,Soyuz,1 48070U 21025AE  23246.05551197  .00000136  00000+0  33763-3 0  9993,2 48070  87.9087 162.7825 0002190  76.5451 283.5922 13.13472050119964,13.1347205,0.000219,LEO
48071,ONEWEB-0172,2021,109.63,148.0,+,87.91,Active,1,LEO,Russia,UK,Commercial,Communications,Soyuz,1 48071U 21025AF  23246.03750934 -.00000064  00000+0 -20979-3 0  9999,2 48071  87.9110 162.7563 0002390  74.6874 285.4520 13.13468036120855,13.13468036,0.000239,LEO
48072,ONEWEB-0174,2021,109.63,148.0,+,87.91,Active,1,LEO,Russia,UK,Commercial,Communications,Soyuz,1 48072U 21025AG  23245.79100649 -.00000162  00000+0 -47972-3 0  9995,2 48072  87.9085 162.8198 0001751  68.2596 291.8720 13.13465457120141,13.13465457,0.0001751,LEO
48073,ONEWEB-0175,2021,109.63,148.0,+,87.91,Active,1,LEO,Russia,UK,Commercial,Communications,Soyuz,1 48073U 21025AH  23245.81851581 -.00000005  00000+0 -48950-4 0  9991,2 48073  87.9090 162.8069 0002288  83.0894 277.0496 13.13471045119804,13.13471045,0.0002288,LEO
48074,ONEWEB-0177,2021,109.63,148.0,+,87.91,Active,1,LEO,Russia,UK,Commercial,Communications,Soyuz,1 48074U 21025AJ  23245.83121461  .00000323  00000+0  84967-3 0  9999,2 48074  87.9089 162.8075 0002335  63.7734 296.3635 13.13468217119997,13.13468217,0.0002335,LEO
48075,ONEWEB-0178,2021,109.63,148.0,+,87.91,Active,1,LEO,Russia,UK,Commercial,Communications,Soyuz,1 48075U 21025AK  23245.77301572  .00000283  00000+0  74003-3 0  9991,2 48075  87.9086 162.8261 0002045  67.7498 292.3848 13.13471091120034,13.13471091,0.0002045,LEO
